NORAD_CAT_ID,OBJECT_NAME,OBJECT_TYPE,EPOCH,MEAN_MOTION,ECCENTRICITY,INCLINATION,RA_OF_ASC_NODE,ARG_OF_PERICENTER,MEAN_ANOMALY,BSTAR,MEAN_MOTION_DOT,MEAN_MOTION_DDOT,TLE_LINE0,TLE_LINE1,TLE_LINE2,SEMIMAJOR_AXIS,PERIOD,APOGEE,PERIGEE,DECAYED
49756.0,STARLINK-3207,PAYLOAD,2022-01-23 06:00:00,15.40542794,0.0003468,53.2172,75.5722,14.6083,216.0623,-0.0018734,-0.00076898,0.0,0 STARLINK-3207,1 49756U 21115AJ  22023.25001157 -.00076898  00000-0 -18734-2 0  9996,2 49756  53.2172  75.5722 0003468  14.6083 216.0623 15.40542794  9161,6822.643,93.474,446.874,442.142,0.0
49756.0,STARLINK-3207,PAYLOAD,2022-01-23 14:00:01,15.40468956,0.0003692,53.2173,74.0029,10.3047,270.029,-0.00021029,-9.047e-05,0.0,0 STARLINK-3207,1 49756U 21115AJ  22023.58334491 -.00009047  00000-0 -21029-3 0  9996,2 49756  53.2173  74.0029 0003692  10.3047 270.0290 15.40468956  3631,6822.861,93.478,447.245,442.207,0.0
49756.0,STARLINK-3207,PAYLOAD,2022-01-23 22:00:00,15.40424943,0.0003493,53.2173,72.4304,9.1552,320.7834,0.0010478,0.00042881,0.0,0 STARLINK-3207,1 49756U 21115AJ  22023.91667824  .00042881  00000-0  10478-2 0  9998,2 49756  53.2173  72.4304 0003493   9.1552 320.7834 15.40424943  9276,6822.991,93.481,447.24,442.473,0.0
49756.0,STARLINK-3207,PAYLOAD,2022-01-24 14:00:01,15.4043139,0.000377,53.2172,69.2911,7.8027,61.2811,0.00057212,0.00023175,0.0,0 STARLINK-3207,1 49756U 21115AJ  22024.58334491  .00023175  00000-0  57212-3 0  9996,2 49756  53.2172  69.2911 0003770   7.8027  61.2811 15.40431390  9370,6822.972,93.48,447.409,442.265,0.0
49756.0,STARLINK-3207,PAYLOAD,2022-01-24 22:00:00,15.4042018,0.0003531,53.2172,67.7188,7.5913,111.0608,0.0013614,0.00055923,0.0,0 STARLINK-3207,1 49756U 21115AJ  22024.91667824  .00055923  00000-0  13614-2 0  9995,2 49756  53.2172  67.7188 0003531   7.5913 111.0608 15.40420180  3642,6823.005,93.481,447.279,442.461,0.0
49756.0,STARLINK-3207,PAYLOAD,2022-01-25 14:00:01,15.40433092,0.000379,53.2168,64.5797,8.5541,209.2512,0.0017015999999999,0.00070162,0.0,0 STARLINK-3207,1 49756U 21115AJ  22025.58334491  .00070162  00000-0  17016-2 0  9992,2 49756  53.2168  64.5797 0003790   8.5541 209.2512 15.40433092  9526,6822.967,93.48,447.418,442.246,0.0
49756.0,STARLINK-3207,PAYLOAD,2022-01-25 22:00:00,15.40474525,0.0003543,53.2169,63.0073,10.486,256.9222,0.00087226,0.00035654,0.0,0 STARLINK-3207,1 49756U 21115AJ  22025.91667824  .00035654  00000-0  87226-3 0  9996,2 49756  53.2169  63.0073 0003543  10.4860 256.9222 15.40474525  3651,6822.845,93.478,447.127,442.292,0.0
49756.0,STARLINK-3207,PAYLOAD,2022-01-26 14:00:01,15.40500747,0.0003756,53.2168,59.868,9.9103,356.7812,-0.00025315,-0.00010817,0.0,0 STARLINK-3207,1 49756U 21115AJ  22026.58334491 -.00010817  00000-0 -25315-3 0  9998,2 49756  53.2168  59.8680 0003756   9.9103 356.7812 15.40500747  9685,6822.767,93.476,447.195,442.07,0.0
49756.0,STARLINK-3207,PAYLOAD,2022-01-26 22:00:00,15.4045851,0.0003452,53.217,58.2954,9.3065,47.0236,-8.8074e-05,-4.025e-05,0.0,0 STARLINK-3207,1 49756U 21115AJ  22026.91667824 -.00004025  00000-0 -88074-4 0  9990,2 49756  53.2170  58.2954 0003452   9.3065  47.0236 15.40458510  3649,6822.892,93.479,447.112,442.402,0.0
49756.0,STARLINK-3207,PAYLOAD,2022-01-27 04:00:00,15.40473006,0.0003478999999999,53.2173,57.118,10.2499,353.2596,-0.0014528,-0.00059719,0.0,0 STARLINK-3207,1 49756U 21115AJ  22027.16667824 -.00059719  00000-0 -14528-2 0  9999,2 49756  53.2173  57.1180 0003479  10.2499 353.2596 15.40473006  9770,6822.849,93.478,447.088,442.341,0.0
49756.0,STARLINK-3207,PAYLOAD,2022-01-27 10:00:01,15.40414435,0.000371,53.2173,55.9415,10.7128,300.0554,0.00083357,0.0003398,0.0,0 STARLINK-3207,1 49756U 21115AJ  22027.41668981  .00033980  00000-0  83357-3 0  9999,2 49756  53.2173  55.9415 0003710  10.7128 300.0554 15.40414435  3633,6823.022,93.481,447.419,442.356,0.0
49756.0,STARLINK-3207,PAYLOAD,2022-01-27 22:00:00,15.40409579,0.0003503999999999,53.2174,53.584,9.3968,195.6482,0.0014754,0.00060656,0.0,0 STARLINK-3207,1 49756U 21115AJ  22027.91667824  .00060656  00000-0  14754-2 0  9993,2 49756  53.2174  53.5840 0003504   9.3968 195.6482 15.40409579  9881,6823.0369999999975,93.482,447.292,442.511,0.0
49756.0,STARLINK-3207,PAYLOAD,2022-01-28 10:00:00,15.40450232,0.0003723,53.2179,51.2303,10.2768,89.1193,0.00027652,0.00010981,0.0,0 STARLINK-3207,1 49756U 21115AJ  22028.41667824  .00010981  00000-0  27652-3 0  9997,2 49756  53.2179  51.2303 0003723  10.2768  89.1193 15.40450232  9964,6822.917,93.479,447.322,442.241,0.0
49756.0,STARLINK-3207,PAYLOAD,2022-01-28 12:00:00,15.40432342,0.0003768,53.2179,50.8378,9.4617,192.336,0.0012375,0.00050784,0.0,0 STARLINK-3207,1 49756U 21115AJ  22028.50001157  .00050784  00000-0  12375-2 0  9998,2 49756  53.2179  50.8378 0003768   9.4617 192.3360 15.40432342  3625,6822.969,93.48,447.405,442.263,0.0
49756.0,STARLINK-3207,PAYLOAD,2022-01-28 22:00:00,15.40428504,0.0003541,53.2179,48.8724,10.2666,343.5157,0.0015708,0.00064679,0.0,0 STARLINK-3207,1 49756U 21115AJ  22028.91667824  .00064679  00000-0  15708-2 0  9993,2 49756  53.2179  48.8724 0003541  10.2666 343.5157 15.40428504  3630,6822.981,93.48,447.262,442.43,0.0
49756.0,STARLINK-3207,PAYLOAD,2022-01-29 14:00:01,15.40467931,0.0003851,53.2178,45.733,11.4575,81.5055,0.00020856,8.184e-05,0.0,0 STARLINK-3207,1 49756U 21115AJ  22029.58334491  .00008184  00000-0  20856-3 0  9998,2 49756  53.2178  45.7330 0003851  11.4575  81.5055 15.40467931 10141,6822.864000000001,93.478,447.357,442.102,0.0
49756.0,STARLINK-3207,PAYLOAD,2022-01-29 22:00:00,15.404479,0.0003569,53.2178,44.1607,11.57,131.0047,0.0010742,0.00044012,0.0,0 STARLINK-3207,1 49756U 21115AJ  22029.91667824  .00044012  00000-0  10742-2 0  9996,2 49756  53.2178  44.1607 0003569  11.5700 131.0047 15.40447900  3641,6822.9230000000025,93.479,447.224,442.353,0.0
49756.0,STARLINK-3207,PAYLOAD,2022-01-30 14:00:01,15.40474358,0.0003764,53.2173,41.0212,9.0712,232.6924,-0.00094645,-0.00039153,0.0,0 STARLINK-3207,1 49756U 21115AJ  22030.58334491 -.00039153  00000-0 -94645-3 0  9999,2 49756  53.2173  41.0212 0003764   9.0712 232.6924 15.40474358 10294,6822.845,93.478,447.278,442.142,0.0
49756.0,STARLINK-3207,PAYLOAD,2022-01-30 22:00:00,15.40431924,0.0003488,53.2172,39.4489,9.28,282.0779,0.00052165,0.00021089,0.0,0 STARLINK-3207,1 49756U 21115AJ  22030.91667824  .00021089  00000-0  52165-3 0  9993,2 49756  53.2172  39.4489 0003488   9.2800 282.0779 15.40431924  3643,6822.971,93.48,447.215,442.456,0.0
49756.0,STARLINK-3207,PAYLOAD,2022-01-31 06:00:00,15.40440864,0.0003667,53.2172,37.8799,11.1651,329.7645,-0.00014151,-6.217e-05,0.0,0 STARLINK-3207,1 49756U 21115AJ  22031.25001157 -.00006217  00000-0 -14151-3 0  9993,2 49756  53.2172  37.8799 0003667  11.1651 329.7645 15.40440864 10400,6822.944,93.48,447.311,442.307,0.0
49756.0,STARLINK-3207,PAYLOAD,2022-01-31 14:00:01,15.4045563,0.0003718,53.2167,36.3094,11.4938,19.0597,0.00069081,0.00028108,0.0,0 STARLINK-3207,1 49756U 21115AJ  22031.58335648  .00028108  00000-0  69081-3 0  9997,2 49756  53.2167  36.3094 0003718  11.4938  19.0597 15.40455630  3644,6822.901,93.479,447.302,442.229,0.0
49756.0,STARLINK-3207,PAYLOAD,2022-01-31 22:00:01,15.40440095,0.0003425,53.217,34.7337,12.7109,67.454,-0.0009246,-0.00038218,0.0,0 STARLINK-3207,1 49756U 21115AJ  22031.91668981 -.00038218  00000-0 -92460-3 0  9995,2 49756  53.2170  34.7337 0003425  12.7109  67.4540 15.40440095  3643,6822.946,93.48,447.148,442.475,0.0
49756.0,STARLINK-3207,PAYLOAD,2022-02-01 06:00:00,15.40482583,0.000358,53.217,33.1681,13.1578,116.5533,-0.00098329,-0.00040663,0.0,0 STARLINK-3207,1 49756U 21115AJ  22032.25001157 -.00040663  00000-0 -98329-3 0  9996,2 49756  53.2170  33.1681 0003580  13.1578 116.5533 15.40482583 10559,6822.821,93.477,447.129,442.24300000000005,0.0
49756.0,STARLINK-3207,PAYLOAD,2022-02-01 14:00:01,15.40478564,0.0003583,53.2169,31.5972,11.5387,167.8242,-0.0012945,-0.00053311,0.0,0 STARLINK-3207,1 49756U 21115AJ  22032.58335648 -.00053311  00000-0 -12945-2 0  9990,2 49756  53.2169  31.5972 0003583  11.5387 167.8242 15.40478564  3614,6822.833000000001,93.477,447.143,442.253,0.0
49756.0,STARLINK-3207,PAYLOAD,2022-02-01 22:00:00,15.40429114,0.0003326,53.2171,30.0251,11.9535,216.9382,0.00031567,0.00012586,0.0,0 STARLINK-3207,1 49756U 21115AJ  22032.91667824  .00012586  00000-0  31567-3 0  9990,2 49756  53.2171  30.0251 0003326  11.9535 216.9382 15.40429114  3635,6822.979,93.48,447.11300000000006,442.575,0.0
49756.0,STARLINK-3207,PAYLOAD,2022-02-02 06:00:00,15.40430321,0.0003542,53.2175,28.4564,12.675999999999998,265.7745,-0.00070159,-0.00029123,0.0,0 STARLINK-3207,1 49756U 21115AJ  22033.25001157 -.00029123  00000-0 -70159-3 0  9996,2 49756  53.2175  28.4564 0003542  12.6760 265.7745 15.40430321 10719,6822.975,93.48,447.257,442.424,0.0
49756.0,STARLINK-3207,PAYLOAD,2022-02-02 14:00:01,15.40435514,0.0003546,53.2176,26.8856,11.8462,316.1399,0.00037359,0.00014978,0.0,0 STARLINK-3207,1 49756U 21115AJ  22033.58334491  .00014978  00000-0  37359-3 0  9997,2 49756  53.2176  26.8856 0003546  11.8462 316.1399 15.40435514 10760,6822.96,93.48,447.244,442.406,0.0
49756.0,STARLINK-3207,PAYLOAD,2022-02-02 22:00:00,15.40441901,0.0003331,53.218,25.3135,14.2701,3.2851,0.0017601,0.00072629,0.0,0 STARLINK-3207,1 49756U 21115AJ  22033.91667824  .00072629  00000-0  17601-2 0  9997,2 49756  53.2180  25.3135 0003331  14.2701   3.2851 15.40441901  3658,6822.941,93.48,447.079,442.533,0.0
49756.0,STARLINK-3207,PAYLOAD,2022-02-03 06:00:00,15.40490762,0.0003498,53.2183,23.7448,11.9353,55.2663,8.186e-05,2.966e-05,0.0,0 STARLINK-3207,1 49756U 21115AJ  22034.25001157  .00002966  00000-0  81860-4 0  9993,2 49756  53.2183  23.7448 0003498  11.9353  55.2663 15.40490762 10869,6822.797,93.477,447.048,442.275,0.0
49756.0,STARLINK-3207,PAYLOAD,2022-02-03 14:00:01,15.40530682,0.0003475,53.2184,22.1737,10.2102,106.6287,-0.0012994,-0.000536,0.0,0 STARLINK-3207,1 49756U 21115AJ  22034.58334491 -.00053600  00000-0 -12994-2 0  9992,2 49756  53.2184  22.1737 0003475  10.2102 106.6287 15.40530682  3640,6822.679,93.474,446.915,442.173,0.0
